{
  "type": "FeatureCollection",
  "name": "LANDSYNC_AI_SYNTHETIC_PARCELS",
  "crs": {
    "type": "name",
    "properties": {
      "name": "urn:ogc:def:crs:OGC:1.3:CRS84"
    }
  },
  "features": [
    {
      "type": "Feature",
      "properties": {
        "parcel_id": "SYN-PARCEL-001",
        "ulpin": "SYN-ULPIN-KA-000001",
        "survey_number": "101/1",
        "plot_number": "4A",
        "holder_name": "Arjun Rao",
        "area": "2.40 acre",
        "scenario": "MATCH (Fully Consistent)",
        "validation_status": "MATCH",
        "disclaimer": "SYNTHETIC DEMO DATA \u2014 NOT A REAL GOVERNMENT RECORD \u2014 FOR LANDSYNC AI PROTOTYPE ONLY"
      },
      "geometry": {
        "type": "Polygon",
        "coordinates": [
          [
            [
              77.5944,
              12.9716
            ],
            [
              77.595,
              12.9716
            ],
            [
              77.595,
              12.9722
            ],
            [
              77.5944,
              12.9722
            ],
            [
              77.5944,
              12.9716
            ]
          ]
        ]
      }
    },
    {
      "type": "Feature",
      "properties": {
        "parcel_id": "SYN-PARCEL-002",
        "ulpin": "SYN-ULPIN-KA-000002",
        "survey_number": "124/2",
        "plot_number": "18B",
        "holder_name": "Ramesh Kumar",
        "area": "2.40 acre",
        "scenario": "AREA_MISMATCH",
        "validation_status": "REVIEW_REQUIRED",
        "disclaimer": "SYNTHETIC DEMO DATA \u2014 NOT A REAL GOVERNMENT RECORD \u2014 FOR LANDSYNC AI PROTOTYPE ONLY"
      },
      "geometry": {
        "type": "Polygon",
        "coordinates": [
          [
            [
              77.5955,
              12.9725
            ],
            [
              77.5961,
              12.9725
            ],
            [
              77.5961,
              12.9731
            ],
            [
              77.5955,
              12.9731
            ],
            [
              77.5955,
              12.9725
            ]
          ]
        ]
      }
    },
    {
      "type": "Feature",
      "properties": {
        "parcel_id": "SYN-PARCEL-003",
        "ulpin": "SYN-ULPIN-KA-000003",
        "survey_number": "158/4",
        "plot_number": "12C",
        "holder_name": "Meera Rao",
        "area": "1.85 acre",
        "scenario": "OWNER_MISMATCH",
        "validation_status": "REVIEW_REQUIRED",
        "disclaimer": "SYNTHETIC DEMO DATA \u2014 NOT A REAL GOVERNMENT RECORD \u2014 FOR LANDSYNC AI PROTOTYPE ONLY"
      },
      "geometry": {
        "type": "Polygon",
        "coordinates": [
          [
            [
              77.5965,
              12.9735
            ],
            [
              77.5971,
              12.9735
            ],
            [
              77.5971,
              12.9741
            ],
            [
              77.5965,
              12.9741
            ],
            [
              77.5965,
              12.9735
            ]
          ]
        ]
      }
    },
    {
      "type": "Feature",
      "properties": {
        "parcel_id": "SYN-PARCEL-004",
        "ulpin": "SYN-ULPIN-KA-000004",
        "survey_number": "204/8",
        "plot_number": "7",
        "holder_name": "Kiran Shetty",
        "area": "3.10 acre",
        "scenario": "SURVEY_NUMBER_MISMATCH",
        "validation_status": "REVIEW_REQUIRED",
        "disclaimer": "SYNTHETIC DEMO DATA \u2014 NOT A REAL GOVERNMENT RECORD \u2014 FOR LANDSYNC AI PROTOTYPE ONLY"
      },
      "geometry": {
        "type": "Polygon",
        "coordinates": [
          [
            [
              77.5975,
              12.9745
            ],
            [
              77.5981,
              12.9745
            ],
            [
              77.5981,
              12.9751
            ],
            [
              77.5975,
              12.9751
            ],
            [
              77.5975,
              12.9745
            ]
          ]
        ]
      }
    },
    {
      "type": "Feature",
      "properties": {
        "parcel_id": "SYN-PARCEL-005",
        "ulpin": "SYN-ULPIN-KA-000005",
        "survey_number": "77/1",
        "plot_number": "3",
        "holder_name": "Ananya Iyer",
        "area": "1.25 acre",
        "scenario": "MISSING_FIELD",
        "validation_status": "REVIEW_REQUIRED",
        "disclaimer": "SYNTHETIC DEMO DATA \u2014 NOT A REAL GOVERNMENT RECORD \u2014 FOR LANDSYNC AI PROTOTYPE ONLY"
      },
      "geometry": {
        "type": "Polygon",
        "coordinates": [
          [
            [
              77.5985,
              12.9755
            ],
            [
              77.5991,
              12.9755
            ],
            [
              77.5991,
              12.9761
            ],
            [
              77.5985,
              12.9761
            ],
            [
              77.5985,
              12.9755
            ]
          ]
        ]
      }
    },
    {
      "type": "Feature",
      "properties": {
        "parcel_id": "SYN-PARCEL-006",
        "ulpin": "SYN-ULPIN-KA-000006",
        "survey_number": "318/2",
        "plot_number": "14",
        "holder_name": "Rohan Kulkarni",
        "area": "4.20 acre",
        "scenario": "LOW_CONFIDENCE_EXTRACTION",
        "validation_status": "REVIEW_REQUIRED",
        "disclaimer": "SYNTHETIC DEMO DATA \u2014 NOT A REAL GOVERNMENT RECORD \u2014 FOR LANDSYNC AI PROTOTYPE ONLY"
      },
      "geometry": {
        "type": "Polygon",
        "coordinates": [
          [
            [
              77.5995,
              12.9765
            ],
            [
              77.6001,
              12.9765
            ],
            [
              77.6001,
              12.9771
            ],
            [
              77.5995,
              12.9771
            ],
            [
              77.5995,
              12.9765
            ]
          ]
        ]
      }
    },
    {
      "type": "Feature",
      "properties": {
        "parcel_id": "SYN-PARCEL-007",
        "ulpin": "SYN-ULPIN-KA-000007",
        "survey_number": "89/1A",
        "plot_number": "5",
        "holder_name": "Vikram Sharma",
        "area": "0.95 acre",
        "scenario": "PARTIAL_MATCH",
        "validation_status": "PARTIAL_MATCH",
        "disclaimer": "SYNTHETIC DEMO DATA \u2014 NOT A REAL GOVERNMENT RECORD \u2014 FOR LANDSYNC AI PROTOTYPE ONLY"
      },
      "geometry": {
        "type": "Polygon",
        "coordinates": [
          [
            [
              77.6005,
              12.9775
            ],
            [
              77.6011,
              12.9775
            ],
            [
              77.6011,
              12.9781
            ],
            [
              77.6005,
              12.9781
            ],
            [
              77.6005,
              12.9775
            ]
          ]
        ]
      }
    },
    {
      "type": "Feature",
      "properties": {
        "parcel_id": "SYN-PARCEL-008",
        "ulpin": "SYN-ULPIN-KA-000008",
        "survey_number": "112/5",
        "plot_number": "9",
        "holder_name": "Sneha Patil",
        "area": "2.00 acre",
        "scenario": "BOUNDARY_SPATIAL_REVIEW",
        "validation_status": "REVIEW_REQUIRED",
        "disclaimer": "SYNTHETIC DEMO DATA \u2014 NOT A REAL GOVERNMENT RECORD \u2014 FOR LANDSYNC AI PROTOTYPE ONLY"
      },
      "geometry": {
        "type": "Polygon",
        "coordinates": [
          [
            [
              77.6015,
              12.9785
            ],
            [
              77.6021,
              12.9785
            ],
            [
              77.6021,
              12.9791
            ],
            [
              77.6015,
              12.9791
            ],
            [
              77.6015,
              12.9785
            ]
          ]
        ]
      }
    },
    {
      "type": "Feature",
      "properties": {
        "parcel_id": "SYN-PARCEL-009",
        "ulpin": "SYN-ULPIN-KA-000009",
        "survey_number": "64/3",
        "plot_number": "21",
        "holder_name": "Rajesh Gowda",
        "area": "3.50 acre",
        "scenario": "MULTIPLE_DOCUMENTS",
        "validation_status": "MATCH",
        "disclaimer": "SYNTHETIC DEMO DATA \u2014 NOT A REAL GOVERNMENT RECORD \u2014 FOR LANDSYNC AI PROTOTYPE ONLY"
      },
      "geometry": {
        "type": "Polygon",
        "coordinates": [
          [
            [
              77.6025,
              12.9795
            ],
            [
              77.6031,
              12.9795
            ],
            [
              77.6031,
              12.9801
            ],
            [
              77.6025,
              12.9801
            ],
            [
              77.6025,
              12.9795
            ]
          ]
        ]
      }
    },
    {
      "type": "Feature",
      "properties": {
        "parcel_id": "SYN-PARCEL-010",
        "ulpin": "SYN-ULPIN-KA-000010",
        "survey_number": "140/2",
        "plot_number": "11",
        "holder_name": "Divya Menon",
        "area": "2.75 acre",
        "scenario": "MUTATION_HISTORY",
        "validation_status": "MATCH",
        "disclaimer": "SYNTHETIC DEMO DATA \u2014 NOT A REAL GOVERNMENT RECORD \u2014 FOR LANDSYNC AI PROTOTYPE ONLY"
      },
      "geometry": {
        "type": "Polygon",
        "coordinates": [
          [
            [
              77.6035,
              12.9805
            ],
            [
              77.6041,
              12.9805
            ],
            [
              77.6041,
              12.9811
            ],
            [
              77.6035,
              12.9811
            ],
            [
              77.6035,
              12.9805
            ]
          ]
        ]
      }
    },
    {
      "type": "Feature",
      "properties": {
        "parcel_id": "SYN-PARCEL-011",
        "ulpin": "SYN-ULPIN-KA-000011",
        "survey_number": "99/1",
        "plot_number": "16",
        "holder_name": "Suresh Deshmukh",
        "area": "1.50 acre",
        "scenario": "DUPLICATE_DOCUMENT",
        "validation_status": "MATCH",
        "disclaimer": "SYNTHETIC DEMO DATA \u2014 NOT A REAL GOVERNMENT RECORD \u2014 FOR LANDSYNC AI PROTOTYPE ONLY"
      },
      "geometry": {
        "type": "Polygon",
        "coordinates": [
          [
            [
              77.6045,
              12.9815
            ],
            [
              77.6051,
              12.9815
            ],
            [
              77.6051,
              12.9821
            ],
            [
              77.6045,
              12.9821
            ],
            [
              77.6045,
              12.9815
            ]
          ]
        ]
      }
    },
    {
      "type": "Feature",
      "properties": {
        "parcel_id": "SYN-PARCEL-012",
        "ulpin": "SYN-ULPIN-KA-000012",
        "survey_number": "215/6",
        "plot_number": "8",
        "holder_name": "Kavita Reddy",
        "area": "1.80 acre",
        "scenario": "AMBIGUOUS_LAND_UNIT",
        "validation_status": "REVIEW_REQUIRED",
        "disclaimer": "SYNTHETIC DEMO DATA \u2014 NOT A REAL GOVERNMENT RECORD \u2014 FOR LANDSYNC AI PROTOTYPE ONLY"
      },
      "geometry": {
        "type": "Polygon",
        "coordinates": [
          [
            [
              77.6055,
              12.9825
            ],
            [
              77.6061,
              12.9825
            ],
            [
              77.6061,
              12.9831
            ],
            [
              77.6055,
              12.9831
            ],
            [
              77.6055,
              12.9825
            ]
          ]
        ]
      }
    },
    {
      "type": "Feature",
      "properties": {
        "parcel_id": "SYN-PARCEL-013",
        "ulpin": "SYN-ULPIN-KA-000013",
        "survey_number": "52/1",
        "plot_number": "2",
        "holder_name": "Amit Joshi",
        "area": "2.10 acre",
        "scenario": "CO_OWNERSHIP_DISCREPANCY",
        "validation_status": "REVIEW_REQUIRED",
        "disclaimer": "SYNTHETIC DEMO DATA \u2014 NOT A REAL GOVERNMENT RECORD \u2014 FOR LANDSYNC AI PROTOTYPE ONLY"
      },
      "geometry": {
        "type": "Polygon",
        "coordinates": [
          [
            [
              77.6065,
              12.9835
            ],
            [
              77.6071,
              12.9835
            ],
            [
              77.6071,
              12.9841
            ],
            [
              77.6065,
              12.9841
            ],
            [
              77.6065,
              12.9835
            ]
          ]
        ]
      }
    },
    {
      "type": "Feature",
      "properties": {
        "parcel_id": "SYN-PARCEL-014",
        "ulpin": "SYN-ULPIN-KA-000014",
        "survey_number": "180/7",
        "plot_number": "15",
        "holder_name": "Priya Swaminathan",
        "area": "1.10 acre",
        "scenario": "LAND_USE_MISMATCH",
        "validation_status": "REVIEW_REQUIRED",
        "disclaimer": "SYNTHETIC DEMO DATA \u2014 NOT A REAL GOVERNMENT RECORD \u2014 FOR LANDSYNC AI PROTOTYPE ONLY"
      },
      "geometry": {
        "type": "Polygon",
        "coordinates": [
          [
            [
              77.6075,
              12.9845
            ],
            [
              77.6081,
              12.9845
            ],
            [
              77.6081,
              12.9851
            ],
            [
              77.6075,
              12.9851
            ],
            [
              77.6075,
              12.9845
            ]
          ]
        ]
      }
    }
  ],
  "disclaimer": "SYNTHETIC DEMO DATA \u2014 NOT A REAL GOVERNMENT RECORD \u2014 FOR LANDSYNC AI PROTOTYPE ONLY"
}